[{"OBJECT_NAME":"STARLINK-2699","OBJECT_ID":"2021-040F","EPOCH":"2026-03-10T00:00:02.999808","MEAN_MOTION":15.14225106,"ECCENTRICITY":0.00010945,"INCLINATION":53.0872,"RA_OF_ASC_NODE":150.3956,"ARG_OF_PERICENTER":60.8354,"MEAN_ANOMALY":13.9709,"EPHEMERIS_TYPE":0,"CLASSIFICATION_TYPE":"U","NORAD_CAT_ID":48433,"ELEMENT_SET_NO":999,"REV_AT_EPOCH":580,"BSTAR":0.075361952,"MEAN_MOTION_DOT":0.01532228,"MEAN_MOTION_DDOT":0},{"OBJECT_NAME":"KUIPER-00266","OBJECT_ID":"2026-030AB","EPOCH":"2026-03-08T21:54:37.698048","MEAN_MOTION":15.30874235,"ECCENTRICITY":0.0022313,"INCLINATION":51.8807,"RA_OF_ASC_NODE":223.5904,"ARG_OF_PERICENTER":72.5291,"MEAN_ANOMALY":287.8129,"EPHEMERIS_TYPE":0,"CLASSIFICATION_TYPE":"U","NORAD_CAT_ID":67789,"ELEMENT_SET_NO":999,"REV_AT_EPOCH":496,"BSTAR":0.00098219753,"MEAN_MOTION_DOT":0.00029701,"MEAN_MOTION_DDOT":0}]
